NORAD_CAT_ID,OBJECT_NAME,OBJECT_TYPE,EPOCH,MEAN_MOTION,ECCENTRICITY,INCLINATION,RA_OF_ASC_NODE,ARG_OF_PERICENTER,MEAN_ANOMALY,BSTAR,MEAN_MOTION_DOT,MEAN_MOTION_DDOT,TLE_LINE0,TLE_LINE1,TLE_LINE2,SEMIMAJOR_AXIS,PERIOD,APOGEE,PERIGEE,DECAYED
52577.0,STARLINK-3836,PAYLOAD,2023-09-18 08:20:46,15.08858666,0.0001302,53.2163,229.3807,96.9532,263.1609,0.00025179,3.724e-05,0.0,0 STARLINK-3836,1 52577U 22051AT  23261.34775648  .00003724  00000-0  25179-3 0  9997,2 52577  53.2163 229.3807 0001302  96.9532 263.1609 15.08858666 75001,6917.823,95.436,540.589,538.788,0.0
52577.0,STARLINK-3836,PAYLOAD,2023-09-19 01:50:01,15.0884192,0.0001372,53.2159,226.11,81.3029,278.8119,8.4126e-05,1.051e-05,0.0,0 STARLINK-3836,1 52577U 22051AT  23262.07640878  .00001051  00000-0  84126-4 0  9993,2 52577  53.2159 226.1100 0001372  81.3029 278.8119 15.08841920 75186,6917.875,95.437,540.689,538.79,0.0
52577.0,STARLINK-3836,PAYLOAD,2023-09-19 06:36:10,15.08859628,0.0001395,53.2159,225.2181,100.3856,259.7294,0.00034802,5.258e-05,0.0,0 STARLINK-3836,1 52577U 22051AT  23262.27512012  .00005258  00000-0  34802-3 0  9991,2 52577  53.2159 225.2181 0001395 100.3856 259.7294 15.08859628 75210,6917.82,95.436,540.65,538.72,0.0
52577.0,STARLINK-3836,PAYLOAD,2023-09-20 04:51:34,15.08834497,0.0001348,53.216,221.0544,102.699,257.4152,0.00023054,3.382e-05,0.0,0 STARLINK-3836,1 52577U 22051AT  23263.20248772  .00003382  00000-0  23054-3 0  9997,2 52577  53.2160 221.0544 0001348 102.6990 257.4152 15.08834497 75351,6917.897,95.438,540.695,538.83,0.0
52577.0,STARLINK-3836,PAYLOAD,2023-09-20 08:02:21,15.08832155,0.0001377,53.2159,220.4597,90.7873,269.3277,0.00026912,3.997e-05,0.0,0 STARLINK-3836,1 52577U 22051AT  23263.33497013  .00003997  00000-0  26912-3 0  9993,2 52577  53.2159 220.4597 0001377  90.7873 269.3277 15.08832155 75303,6917.904,95.438,540.722,538.817,0.0
52577.0,STARLINK-3836,PAYLOAD,2023-09-20 14:23:54,15.08824544,0.0001439,53.2159,219.2703,82.5173,277.5982,-4.9987e-05,-1.083e-05,0.0,0 STARLINK-3836,1 52577U 22051AT  23263.59993611 -.00001083  00000-0 -49987-4 0  9990,2 52577  53.2159 219.2703 0001439  82.5173 277.5982 15.08824544 75418,6917.928,95.439,540.788,538.797,0.0
52577.0,STARLINK-3836,PAYLOAD,2023-09-21 06:17:46,15.08832252,0.0001361,53.2163,216.2955,86.9488,273.166,7.8067e-05,9.54e-06,0.0,0 STARLINK-3836,1 52577U 22051AT  23264.26233999  .00000954  00000-0  78067-4 0  9996,2 52577  53.2163 216.2955 0001361  86.9488 273.1660 15.08832252 75443,6917.904,95.438,540.711,538.828,0.0
52577.0,STARLINK-3836,PAYLOAD,2023-09-22 02:57:46,15.08840314,0.0001498,53.2167,212.4299,92.9148,267.2016,8.6242e-05,1.085e-05,0.0,0 STARLINK-3836,1 52577U 22051AT  23265.12344961  .00001085  00000-0  86242-4 0  9994,2 52577  53.2167 212.4299 0001498  92.9148 267.2016 15.08840314 75646,6917.879,95.438,540.781,538.708,0.0
52577.0,STARLINK-3836,PAYLOAD,2023-09-22 06:08:32,15.08839384,0.0001558,53.2167,211.8351,92.9636,267.1534,4.5216e-05,4.32e-06,0.0,0 STARLINK-3836,1 52577U 22051AT  23265.25592985  .00000432  00000-0  45216-4 0  9990,2 52577  53.2167 211.8351 0001558  92.9636 267.1534 15.08839384 75590,6917.882,95.438,540.825,538.669,0.0
52577.0,STARLINK-3836,PAYLOAD,2023-09-23 02:48:33,15.08843543,0.000148,53.2159,207.9674,102.9712,257.1446,7.0115e-05,8.28e-06,0.0,0 STARLINK-3836,1 52577U 22051AT  23266.11705042  .00000828  00000-0  70115-4 0  9991,2 52577  53.2159 207.9674 0001480 102.9712 257.1446 15.08843543 75724,6917.87,95.437,540.758,538.711,0.0
52577.0,STARLINK-3836,PAYLOAD,2023-09-24 04:14:43,15.08836009,0.0001446,53.2159,203.2124,99.5691,260.5465,0.00016375,2.319e-05,0.0,0 STARLINK-3836,1 52577U 22051AT  23267.17689682  .00002319  00000-0  16375-3 0  9993,2 52577  53.2159 203.2124 0001446  99.5691 260.5465 15.08836009 75955,6917.893,95.438,540.758,538.757,0.0
52577.0,STARLINK-3836,PAYLOAD,2023-09-24 05:50:06,15.08838004,0.000143,53.2161,202.9127,104.4838,255.6313,0.00021736,3.173e-05,0.0,0 STARLINK-3836,1 52577U 22051AT  23267.24313519  .00003173  00000-0  21736-3 0  9990,2 52577  53.2161 202.9127 0001430 104.4838 255.6313 15.08838004 75896,6917.886,95.438,540.741,538.762,0.0
52577.0,STARLINK-3836,PAYLOAD,2023-09-25 02:30:07,15.08853895,0.0001408,53.2154,199.05,111.7285,248.3857,0.00029867,4.47e-05,0.0,0 STARLINK-3836,1 52577U 22051AT  23268.10425007  .00004470  00000-0  29867-3 0  9996,2 52577  53.2154 199.0500 0001408 111.7285 248.3857 15.08853895 76091,6917.838,95.437,540.677,538.729,0.0
52577.0,STARLINK-3836,PAYLOAD,2023-09-25 12:02:25,15.0885228,0.0001399,53.2161,197.2658,99.9471,260.1679,0.0002791,4.158e-05,0.0,0 STARLINK-3836,1 52577U 22051AT  23268.50168921  .00004158  00000-0  27910-3 0  9999,2 52577  53.2161 197.2658 0001399  99.9471 260.1679 15.08852280 76086,6917.843,95.437,540.676,538.74,0.0
52577.0,STARLINK-3836,PAYLOAD,2023-09-26 00:45:31,15.0884191,0.0001234,53.216,194.8886,96.8624,263.2509,8.3061e-05,1.034e-05,0.0,0 STARLINK-3836,1 52577U 22051AT  23269.03161089  .00001034  00000-0  83061-4 0  9996,2 52577  53.2160 194.8886 0001234  96.8624 263.2509 15.08841910 76236,6917.875,95.437,540.593,538.886,0.0
52577.0,STARLINK-3836,PAYLOAD,2023-09-26 05:31:40,15.08849639,0.000132,53.2163,193.9945,108.0054,252.1082,6.4848e-05,7.45e-06,0.0,0 STARLINK-3836,1 52577U 22051AT  23269.23032513  .00000745  00000-0  64848-4 0  9997,2 52577  53.2163 193.9945 0001320 108.0054 252.1082 15.08849639 76266,6917.851,95.437,540.629,538.803,0.0
52577.0,STARLINK-3836,PAYLOAD,2023-09-27 03:47:05,15.08840178,0.0001685,53.2172,189.828,109.6414,250.476,-0.00010943,-2.029e-05,0.0,0 STARLINK-3836,1 52577U 22051AT  23270.15770350 -.00002029  00000-0 -10943-3 0  9993,2 52577  53.2172 189.8280 0001685 109.6414 250.4760 15.08840178 76402,6917.88,95.438,540.911,538.579,0.0
52577.0,STARLINK-3836,PAYLOAD,2023-09-27 11:44:01,15.0883697,0.0001772,53.2179,188.344,81.2443,278.875,-7.6416e-05,-1.504e-05,0.0,0 STARLINK-3836,1 52577U 22051AT  23270.48890759 -.00001504  00000-0 -76416-4 0  9990,2 52577  53.2179 188.3440 0001772  81.2443 278.8750 15.08836970 76380,6917.89,95.438,540.981,538.529,0.0
52577.0,STARLINK-3836,PAYLOAD,2023-09-28 02:02:30,15.08832858,0.0001829,53.2167,185.6667,87.4658,272.6543,-2.0293e-05,-6.11e-06,0.0,0 STARLINK-3836,1 52577U 22051AT  23271.08507035 -.00000611  00000-0 -20293-4 0  9999,2 52577  53.2167 185.6667 0001829  87.4658 272.6543 15.08832858 76548,6917.902,95.438,541.033,538.502,0.0
52577.0,STARLINK-3836,PAYLOAD,2023-09-28 17:56:21,15.0882911,0.0001903,53.2168,182.6945,88.4704,271.6506,0.0001946,2.809e-05,0.0,0 STARLINK-3836,1 52577U 22051AT  23271.74747317  .00002809  00000-0  19460-3 0  9993,2 52577  53.2168 182.6945 0001903  88.4704 271.6506 15.08829110 76579,6917.914,95.438,541.095,538.462,0.0
52577.0,STARLINK-3836,PAYLOAD,2023-09-29 03:28:39,15.08843108,0.0001881,53.216,180.9128,81.4162,278.7044,0.0001768,2.527e-05,0.0,0 STARLINK-3836,1 52577U 22051AT  23272.14490658  .00002527  00000-0  17680-3 0  9990,2 52577  53.2160 180.9128 0001881  81.4162 278.7044 15.08843108 76704,6917.871,95.437,541.037,538.435,0.0
52577.0,STARLINK-3836,PAYLOAD,2023-09-30 00:08:40,15.08846023,0.0001603,53.2166,177.0479,80.6105,279.5068,0.0001701,2.421e-05,0.0,0 STARLINK-3836,1 52577U 22051AT  23273.00602192  .00002421  00000-0  17010-3 0  9994,2 52577  53.2166 177.0479 0001603  80.6105 279.5068 15.08846023 76766,6917.862,95.437,540.836,538.618,0.0
52577.0,STARLINK-3836,PAYLOAD,2023-09-30 11:16:22,15.0884714,0.0001986,53.215,174.9675,60.1256,299.9933,7.4576e-05,8.99e-06,0.0,0 STARLINK-3836,1 52577U 22051AT  23273.46970297  .00000899  00000-0  74576-4 0  9996,2 52577  53.2150 174.9675 0001986  60.1256 299.9933 15.08847140 76901,6917.859,95.437,541.097,538.35,0.0
52577.0,STARLINK-3836,PAYLOAD,2023-10-01 03:10:13,15.08845841,0.0001275,53.2166,171.99,88.0872,272.0266,-2.3208e-05,-6.57e-06,0.0,0 STARLINK-3836,1 52577U 22051AT  23274.13210483 -.00000657  00000-0 -23208-4 0  9995,2 52577  53.2166 171.9900 0001275  88.0872 272.0266 15.08845841 77009,6917.863,95.437,540.61,538.846,0.0
52577.0,STARLINK-3836,PAYLOAD,2023-10-01 20:39:27,15.088541,0.0001473,53.2165,168.7173,94.2245,265.8916,-3.091e-05,-7.8e-06,0.0,0 STARLINK-3836,1 52577U 22051AT  23274.86073838 -.00000780  00000-0 -30910-4 0  9991,2 52577  53.2165 168.7173 0001473  94.2245 265.8916 15.08854100 77041,6917.837,95.437,540.721,538.683,0.0
52577.0,STARLINK-3836,PAYLOAD,2023-10-02 09:22:33,15.08833037,0.0001568,53.2157,166.3405,84.9,275.2171,-6.3212e-05,-1.294e-05,0.0,0 STARLINK-3836,1 52577U 22051AT  23275.39066784 -.00001294  00000-0 -63212-4 0  9994,2 52577  53.2157 166.3405 0001568  84.9000 275.2171 15.08833037 77194,6917.902,95.438,540.851,538.682,0.0
52577.0,STARLINK-3836,PAYLOAD,2023-10-02 20:30:15,15.08830789,0.0001412,53.2154,164.2587,87.7766,272.3387,0.00010301,1.351e-05,0.0,0 STARLINK-3836,1 52577U 22051AT  23275.85435128  .00001351  00000-0  10301-3 0  9999,2 52577  53.2154 164.2587 0001412  87.7766 272.3387 15.08830789 77195,6917.909,95.438,540.75,538.797,0.0
52577.0,STARLINK-3836,PAYLOAD,2023-10-02 23:41:01,15.08841672,0.0001364,53.2152,163.6649,85.0483,275.0665,0.00011425,1.531e-05,0.0,0 STARLINK-3836,1 52577U 22051AT  23275.98682605  .00001531  00000-0  11425-3 0  9995,2 52577  53.2152 163.6649 0001364  85.0483 275.0665 15.08841672 77280,6917.875,95.437,540.684,538.797,0.0
52577.0,STARLINK-3836,PAYLOAD,2023-10-03 09:13:20,15.08840602,0.0001319,53.2147,161.8809,89.142,270.9723,3.9451e-05,3.4e-06,0.0,0 STARLINK-3836,1 52577U 22051AT  23276.38426530  .00000340  00000-0  39451-4 0  9990,2 52577  53.2147 161.8809 0001319  89.1420 270.9723 15.08840602 77278,6917.879,95.438,540.656,538.831,0.0
52577.0,STARLINK-3836,PAYLOAD,2023-10-03 20:21:02,15.088312,0.0001234,53.2154,159.7974,81.1504,278.9628,-0.00017652,-3.095e-05,0.0,0 STARLINK-3836,1 52577U 22051AT  23276.84795071 -.00003095  00000-0 -17652-3 0  9990,2 52577  53.2154 159.7974 0001234  81.1504 278.9628 15.08831200 77418,6917.907,95.438,540.626,538.919,0.0
